STARLINK-30250          
1 57527U 23115G   26068.19241819 -.00006688  00000+0 -23974-3 0  9992
2 57527  42.9981   4.5339 0000478 287.7071  72.3728 15.26761278143176
FLOCK 4G-3              
1 62639U 25009AG  26068.80174065  .00011494  00000+0  43389-3 0  9993
2 62639  97.4062 151.4068 0001320 293.2042  66.9058 15.27179310 63727
